NORAD_CAT_ID,OBJECT_NAME,OBJECT_TYPE,EPOCH,MEAN_MOTION,ECCENTRICITY,INCLINATION,RA_OF_ASC_NODE,ARG_OF_PERICENTER,MEAN_ANOMALY,BSTAR,MEAN_MOTION_DOT,MEAN_MOTION_DDOT,TLE_LINE0,TLE_LINE1,TLE_LINE2,SEMIMAJOR_AXIS,PERIOD,APOGEE,PERIGEE,DECAYED
55655.0,STARLINK-5267,PAYLOAD,2024-07-30 05:08:36,14.98323488,0.0003735,69.9985,205.7991,268.0259,92.0472,4.0795e-05,3.94e-06,0.0,0 STARLINK-5267,1 55655U 23021AD  24212.21430710  .00000394  00000-0  40795-4 0  9998,2 55655  69.9985 205.7991 0003735 268.0259  92.0472 14.98323488 80986,6950.213,96.107,574.674,569.482,0.0
55655.0,STARLINK-5267,PAYLOAD,2024-07-30 09:57:00,14.98328197,0.0003658,69.9986,205.294,266.8733,93.2008,8.9759e-05,9.78e-06,0.0,0 STARLINK-5267,1 55655U 23021AD  24212.41458351  .00000978  00000-0  89759-4 0  9992,2 55655  69.9986 205.2940 0003658 266.8733  93.2008 14.98328197 81311,6950.198,96.107,574.606,569.521,0.0
55655.0,STARLINK-5267,PAYLOAD,2024-07-30 16:21:32,14.98330837,0.0003573,69.999,204.6208,267.878,92.197,8.1957e-05,8.85e-06,0.0,0 STARLINK-5267,1 55655U 23021AD  24212.68162303  .00000885  00000-0  81957-4 0  9999,2 55655  69.9990 204.6208 0003573 267.8780  92.1970 14.98330837 81056,6950.19,96.107,574.539,569.572,0.0
55655.0,STARLINK-5267,PAYLOAD,2024-07-31 08:22:52,14.98330609,0.0003545,69.9989,202.9375,267.6442,92.4311,0.00024411,2.821e-05,0.0,0 STARLINK-5267,1 55655U 23021AD  24213.34922179  .00002821  00000-0  24411-3 0  9991,2 55655  69.9989 202.9375 0003545 267.6442  92.4311 14.98330609 81455,6950.191,96.107,574.52,569.592,0.0
55655.0,STARLINK-5267,PAYLOAD,2024-07-31 16:23:32,14.98335532,0.0003529,69.9989,202.0959,267.5602,92.5153,0.00020213,2.32e-05,0.0,0 STARLINK-5267,1 55655U 23021AD  24213.68301919  .00002320  00000-0  20213-3 0  9991,2 55655  69.9989 202.0959 0003529 267.5602  92.5153 14.98335532 81201,6950.176,96.107,574.494,569.588,0.0
55655.0,STARLINK-5267,PAYLOAD,2024-08-01 05:12:36,14.98346275,0.0003498,69.999,200.7498,265.0036,95.0724,0.00016836,1.917e-05,0.0,0 STARLINK-5267,1 55655U 23021AD  24214.21709012  .00001917  00000-0  16836-3 0  9994,2 55655  69.9990 200.7498 0003498 265.0036  95.0724 14.98346275 81281,6950.143,96.106,574.439,569.576,0.0
55655.0,STARLINK-5267,PAYLOAD,2024-08-01 10:01:00,14.98348774,0.0003483,69.9991,200.2447,265.403,94.6732,0.00018948,2.17e-05,0.0,0 STARLINK-5267,1 55655U 23021AD  24214.41736617  .00002170  00000-0  18948-3 0  9995,2 55655  69.9991 200.2447 0003483 265.4030  94.6732 14.98348774 81610,6950.135,96.106,574.421,569.579,0.0
55655.0,STARLINK-5267,PAYLOAD,2024-08-01 22:50:05,14.98341521,0.000319,70.0002,198.8986,261.4554,98.6244,4.6065e-05,4.57e-06,0.0,0 STARLINK-5267,1 55655U 23021AD  24214.95145013  .00000457  00000-0  46065-4 0  9996,2 55655  70.0002 198.8986 0003190 261.4554  98.6244 14.98341521 81691,6950.157,96.106,574.239,569.805,0.0
55655.0,STARLINK-5267,PAYLOAD,2024-08-02 05:14:37,14.98336961,0.0003332,69.9994,198.2246,264.6391,95.4388,-1.9002e-05,-3.2e-06,0.0,0 STARLINK-5267,1 55655U 23021AD  24215.21849299 -.00000320  00000-0 -19002-4 0  9995,2 55655  69.9994 198.2246 0003332 264.6391  95.4388 14.98336961 81431,6950.171,96.107,574.352,569.721,0.0
55655.0,STARLINK-5267,PAYLOAD,2024-08-02 08:26:53,14.98337427,0.0003187,69.9998,197.8879,262.2348,97.8449,-6.7121e-06,-1.73e-06,0.0,0 STARLINK-5267,1 55655U 23021AD  24215.35201181 -.00000173  00000-0 -67121-5 0  9994,2 55655  69.9998 197.8879 0003187 262.2348  97.8449 14.98337427 81753,6950.17,96.107,574.25,569.82,0.0
55655.0,STARLINK-5267,PAYLOAD,2024-08-02 16:27:34,14.98337471,0.0003469,69.9991,197.0466,267.0736,93.0026,-5.2981e-05,-7.25e-06,0.0,0 STARLINK-5267,1 55655U 23021AD  24215.68581048 -.00000725  00000-0 -52981-4 0  9993,2 55655  69.9991 197.0466 0003469 267.0736  93.0026 14.98337471 81801,6950.17,96.107,574.446,569.624,0.0
55655.0,STARLINK-5267,PAYLOAD,2024-08-03 05:16:38,14.98335565,0.0003338,69.9993,195.7,266.1792,93.8986,-7.5957e-05,-9.99e-06,0.0,0 STARLINK-5267,1 55655U 23021AD  24216.21988992 -.00000999  00000-0 -75957-4 0  9993,2 55655  69.9993 195.7000 0003338 266.1792  93.8986 14.98335565 81589,6950.176,96.107,574.361,569.721,0.0
55655.0,STARLINK-5267,PAYLOAD,2024-08-03 08:28:54,14.98337712,0.0003279,69.9994,195.3634,265.326,94.7524,-7.1523e-05,-9.47e-06,0.0,0 STARLINK-5267,1 55655U 23021AD  24216.35340788 -.00000947  00000-0 -71523-4 0  9991,2 55655  69.9994 195.3634 0003279 265.3260  94.7524 14.98337712 81904,6950.169,96.107,574.313,569.755,0.0
55655.0,STARLINK-5267,PAYLOAD,2024-08-03 22:54:06,14.98332639,0.0003344,69.9995,193.8485,267.5551,92.5225,3.1864e-05,2.87e-06,0.0,0 STARLINK-5267,1 55655U 23021AD  24216.95424580  .00000287  00000-0  31864-4 0  9999,2 55655  69.9995 193.8485 0003344 267.5551  92.5225 14.98332639 81998,6950.185,96.107,574.374,569.726,0.0
55655.0,STARLINK-5267,PAYLOAD,2024-08-04 05:18:38,14.98335164,0.000336,69.9994,193.1756,267.4528,92.6247,6.345e-05,6.64e-06,0.0,0 STARLINK-5267,1 55655U 23021AD  24217.22128290  .00000664  00000-0  63450-4 0  9994,2 55655  69.9994 193.1756 0003360 267.4528  92.6247 14.98335164 81735,6950.177,96.107,574.377,569.707,0.0
55655.0,STARLINK-5267,PAYLOAD,2024-08-04 08:30:54,14.98337902,0.0003342,69.9995,192.8387,267.5731,92.5046,8.6652e-05,9.41e-06,0.0,0 STARLINK-5267,1 55655U 23021AD  24217.35480023  .00000941  00000-0  86652-4 0  9990,2 55655  69.9995 192.8387 0003342 267.5731  92.5046 14.98337902 82053,6950.168,96.106,574.356,569.711,0.0
55655.0,STARLINK-5267,PAYLOAD,2024-08-04 22:56:07,14.98329673,0.0003284,69.9997,191.3239,268.4862,91.5921,2.2835e-05,1.79e-06,0.0,0 STARLINK-5267,1 55655U 23021AD  24217.95564595  .00000179  00000-0  22835-4 0  9999,2 55655  69.9997 191.3239 0003284 268.4862  91.5921 14.98329673 82142,6950.194,96.107,574.341,569.776,0.0
55655.0,STARLINK-5267,PAYLOAD,2024-08-05 05:20:39,14.98328054,0.0003246,69.9999,190.6524,269.1415,90.9372,0.0001182,1.318e-05,0.0,0 STARLINK-5267,1 55655U 23021AD  24218.22268452  .00001318  00000-0  11820-3 0  9990,2 55655  69.9999 190.6524 0003246 269.1415  90.9372 14.98328054 81888,6950.199,96.107,574.32,569.808,0.0
55655.0,STARLINK-5267,PAYLOAD,2024-08-05 22:58:09,14.98317833,0.000297,70.0015,188.8038,264.476,95.6061,1.1326e-05,4.2e-07,0.0,0 STARLINK-5267,1 55655U 23021AD  24218.95705404  .00000042  00000-0  11326-4 0  9998,2 55655  70.0015 188.8038 0002970 264.4760  95.6061 14.98317833 82299,6950.231,96.108,574.16,570.031,0.0
55655.0,STARLINK-5267,PAYLOAD,2024-08-06 05:22:42,14.9831435,0.0002699,70.0014,188.1296,249.3945,110.6924,-4.4851e-05,-6.28e-06,0.0,0 STARLINK-5267,1 55655U 23021AD  24219.22409981 -.00000628  00000-0 -44851-4 0  9991,2 55655  70.0014 188.1296 0002699 249.3945 110.6924 14.98314350 82031,6950.241,96.108,573.982,570.23,0.0
55655.0,STARLINK-5267,PAYLOAD,2024-08-06 14:59:30,14.98322725,0.000336,69.999,187.1163,269.5869,90.4905,3.6435e-05,3.42e-06,0.0,0 STARLINK-5267,1 55655U 23021AD  24219.62465457  .00000342  00000-0  36435-4 0  9995,2 55655  69.9990 187.1163 0003360 269.5869  90.4905 14.98322725 82396,6950.215,96.107,574.416,569.745,0.0
55655.0,STARLINK-5267,PAYLOAD,2024-08-07 03:48:34,14.98331652,0.0003306,69.9997,185.7698,272.9189,87.1592,6.4982e-05,6.82e-06,0.0,0 STARLINK-5267,1 55655U 23021AD  24220.15872844  .00000682  00000-0  64982-4 0  9992,2 55655  69.9997 185.7698 0003306 272.9189  87.1592 14.98331652 82173,6950.188,96.107,574.351,569.755,0.0
55655.0,STARLINK-5267,PAYLOAD,2024-08-07 05:24:42,14.98332377,0.0003223,70.0002,185.6018,270.695,89.384,9.8308e-05,1.08e-05,0.0,0 STARLINK-5267,1 55655U 23021AD  24220.22548711  .00001080  00000-0  98308-4 0  9995,2 55655  70.0002 185.6018 0003223 270.6950  89.3840 14.98332377 82486,6950.186,96.107,574.291,569.81,0.0
55655.0,STARLINK-5267,PAYLOAD,2024-08-08 07:02:50,14.98332731,0.0003082,70.0002,182.9088,271.43,88.6506,0.0002562,2.965e-05,0.0,0 STARLINK-5267,1 55655U 23021AD  24221.29364306  .00002965  00000-0  25620-3 0  9998,2 55655  70.0002 182.9088 0003082 271.4300  88.6506 14.98332731 82647,6950.184,96.107,574.191,569.907,0.0
55655.0,STARLINK-5267,PAYLOAD,2024-08-09 05:28:44,14.98334165,0.0003078,70.0001,180.5524,269.2159,90.8648,-1.9119e-05,-3.21e-06,0.0,0 STARLINK-5267,1 55655U 23021AD  24222.22828789 -.00000321  00000-0 -19119-4 0  9995,2 55655  70.0001 180.5524 0003078 269.2159  90.8648 14.98334165 82484,6950.18,96.107,574.184,569.906,0.0
55655.0,STARLINK-5267,PAYLOAD,2024-08-09 07:04:52,14.98335474,0.0003055,70.0002,180.3843,268.8349,91.246,-1.2143e-06,-1.08e-06,0.0,0 STARLINK-5267,1 55655U 23021AD  24222.29504646 -.00000108  00000-0 -12143-5 0  9999,2 55655  70.0002 180.3843 0003055 268.8349  91.2460 14.98335474 82793,6950.176,96.107,574.164,569.918,0.0
55655.0,STARLINK-5267,PAYLOAD,2024-08-09 21:30:04,14.98335684,0.0003086,70.0002,178.869,270.8233,89.2572,-2.3875e-05,-3.78e-06,0.0,0 STARLINK-5267,1 55655U 23021AD  24222.89588583 -.00000378  00000-0 -23875-4 0  9999,2 55655  70.0002 178.8690 0003086 270.8233  89.2572 14.98335684 82888,6950.175,96.107,574.185,569.895,0.0
55655.0,STARLINK-5267,PAYLOAD,2024-08-10 03:54:36,14.98340664,0.0003011,70.0002,178.1951,271.3653,88.7161,2.8626e-05,2.49e-06,0.0,0 STARLINK-5267,1 55655U 23021AD  24223.16291948  .00000249  00000-0  28626-4 0  9990,2 55655  70.0002 178.1951 0003011 271.3653  88.7161 14.98340664 82625,6950.16,96.106,574.118,569.932,0.0
55655.0,STARLINK-5267,PAYLOAD,2024-08-10 21:32:04,14.98337323,0.0003087,70.0005,176.3441,267.2724,92.8082,0.00011636,1.296e-05,0.0,0 STARLINK-5267,1 55655U 23021AD  24223.89727369  .00001296  00000-0  11636-3 0  9996,2 55655  70.0005 176.3441 0003087 267.2724  92.8082 14.98337323 83030,6950.17,96.107,574.181,569.89,0.0
55655.0,STARLINK-5267,PAYLOAD,2024-08-11 02:20:29,14.98323009,0.0003284,70.0004,175.8392,280.4748,79.6041,-4.4855e-05,-6.28e-06,0.0,0 STARLINK-5267,1 55655U 23021AD  24224.09756714 -.00000628  00000-0 -44855-4 0  9995,2 55655  70.0004 175.8392 0003284 280.4748  79.6041 14.98323009 82763,6950.215,96.107,574.362,569.797,0.0
